63P/Wild,e,19.6197,357.7379,168.7393,5.654498,0.0733015,0.65072938,358.9636,06/22.0/2026,2000,g 10.5,6.0
# From MPC191598
64P/Swift-Gehrels,e,8.9549,299.7612,97.3332,4.452575,0.1049028,0.68809558,291.9829,06/22.0/2026,2000,g  9.5,12.0
# From MPEC 2026-M30
65P/Gunn,e,9.1750,61.9645,213.6157,3.891018,0.1284131,0.24806954,47.6191,06/22.0/2026,2000,g  5.0,6.0
# From MPC191598
66P/duToit,e,18.6476,21.8740,257.3094,6.070613,0.0658954,0.78496020,195.4196,06/22.0/2026,2000,g 12.0,3.6
# From MPC191598
67P/Churyumov-Gerasimenko,e,3.8664,36.2914,22.2372,3.458905,0.1532132,0.64954793,259.2620,06/22.0/2026,2000,g 11.0,4.0
# From MPC191598
68P/Klemola,e,11.0967,175.0976,153.1707,4.964712,0.0890970,0.63563496,215.8230,06/22.0/2026,2000,g 10.0,4.0
# From MPC191599
69P/Taylor,e,22.0613,104.8053,343.5576,3.878558,0.1290324,0.41463582,341.4854,06/22.0/2026,2000,g  9.5,12.0
# From MPEC 2026-J11
70P/Kojima,e,6.6036,119.2360,1.8291,3.674564,0.1399250,0.45497074,236.4435,06/22.0/2026,2000,g 11.0,6.0
# From MPC191599
71P/Clark,e,9.1582,58.7054,210.9678,3.190034,0.1729861,0.48017592,216.9812,06/22.0/2026,2000,g  9.8,6.0
# From MPC191599
73P/Schwassmann-Wachmann,e,6.2366,52.5730,214.3923,3.059116,0.1842087,0.70183659,258.9434,06/22.0/2026,2000,g 11.5,6.0
# From MPC106348
73P-BT/Schwassmann-Wachmann,e,6.1984,52.6380,214.2629,3.060522,0.1840818,0.70202778,258.6591,06/22.0/2026,2000,g 11.5,6.0
# From MPC194199
74P/Smirnova-Chernykh,e,5.7970,48.1293,57.8267,5.210314,0.0828721,0.07189640,11.1379,06/22.0/2026,2000,g  5.0,6.0
# From MPEC 2026-KB8
76P/West-Kohoutek-Ikemura,e,30.4969,84.1083,0.0209,3.467798,0.1526242,0.53954254,10.5865,06/22.0/2026,2000,g  8.0,12.0
# From MPC191599
77P/Longmore,e,24.3352,14.7484,196.5806,3.618814,0.1431708,0.35228688,168.3404,06/22.0/2026,2000,g  7.0,8.0
# From MPC194199
78P/Gehrels,e,6.2577,210.4944,192.7974,3.731704,0.1367236,0.46284921,359.5755,06/22.0/2026,2000,g  5.5,8.0
# From MPC191599
79P/duToit-Hartley,e,3.1491,280.4666,281.7821,2.941678,0.1953491,0.61975583,194.4529,06/22.0/2026,2000,g 16.0,4.0
# From MPC191600
81P/Wild,e,3.2390,136.1098,41.5502,3.450557,0.1537695,0.53808481,197.3579,06/22.0/2026,2000,g  7.0,6.0
# From MPC191600
82P/Gehrels,e,1.1290,239.2853,226.2935,4.135776,0.1171841,0.12371049,342.8862,06/22.0/2026,2000,g  5.0,8.0
# From MPEC 2026-M30
84P/Giclas,e,7.5527,108.0797,281.7389,3.549863,0.1473624,0.51550597,325.2652,06/22.0/2026,2000,g  9.5,8.0
# From MPC191600
86P/Wild,e,15.4419,72.0484,180.8912,3.657920,0.1408811,0.35894191,226.7657,06/22.0/2026,2000,g 11.0,6.0
# From MPC191600
87P/Bus,e,3.8667,175.3099,63.3807,4.475731,0.1040898,0.19419669,245.1365,06/22.0/2026,2000,g  7.2,10.0
# From MPEC 2026-M30
88P/Howell,e,4.3819,56.6678,235.8613,3.108995,0.1797936,0.56328158,17.1238,06/22.0/2026,2000,g 11.0,6.0
# From MPC191600
89P/Russell,e,12.0644,41.3324,250.4919,3.752175,0.1356062,0.40683325,110.8962,06/22.0/2026,2000,g 11.5,6.0
# From MPC191600
90P/Gehrels,e,9.6313,13.1361,29.2412,6.056655,0.0661233,0.50994154,217.2987,06/22.0/2026,2000,g  8.5,6.0
# From MPC191600
91P/Russell,e,15.8836,241.6978,356.7877,4.168923,0.1157893,0.25013569,260.8213,06/22.0/2026,2000,g  7.5,6.0
# From MPEC 2026-M30
92P/Sanguin,e,19.4758,181.3287,163.7694,5.347105,0.0797124,0.65990912,329.0342,06/22.0/2026,2000,g 12.0,6.0
# From MPEC 2026-L50
93P/Lovas,e,12.2106,339.5487,75.0480,4.372538,0.1077963,0.61386494,5.3946,06/22.0/2026,2000,g  9.5,6.0
# From MPEC 2026-J11
94P/Russell,e,6.1870,70.8288,92.4033,3.509405,0.1499180,0.36633135,169.0002,06/22.0/2026,2000,g  9.0,6.0
# From MPC191601
96P/Machholz,e,57.5629,93.9540,14.7463,3.030890,0.1867879,0.96173326,231.1028,06/22.0/2026,2000,g 13.0,4.8
# From MPC106348
96P-B/Machholz,e,57.5141,14.4550,94.0888,3.029956,0.1868743,0.96173795,231.2896,06/22.0/2026,2000,g 13.0,4.8
# From MPC191601
97P/Metcalf-Brewington,e,17.9287,184.0566,230.2538,4.772177,0.0945430,0.45938876,150.0984,06/22.0/2026,2000,g  5.5,6.0
# From MPC191601
98P/Takamizawa,e,10.7661,114.3255,161.7044,3.618715,0.1431767,0.60654010,264.1221,06/22.0/2026,2000,g  9.0,8.0
# From MPC191601
99P/Kowal,e,4.3398,28.0384,174.5121,6.092667,0.0655380,0.22915012,100.5820,06/22.0/2026,2000,g  4.5,6.0
# From MPC191601
100P/Hartley,e,25.5697,37.6867,181.8795,3.430131,0.1551451,0.41149834,219.1249,06/22.0/2026,2000,g  9.0,8.0
# From MPC191601
101P/Chernykh,e,5.0485,116.1112,278.0141,5.820285,0.0701920,0.59487749,165.1864,06/22.0/2026,2000,g 10.0,4.8
# From MPC191601
102P/Shoemaker,e,25.8434,339.3409,20.6846,3.821659,0.1319247,0.45564463,261.0829,06/22.0/2026,2000,g  6.5,8.0
# From MPC191602
103P/Hartley,e,13.6004,219.7643,181.3350,3.476502,0.1520514,0.69313187,149.5980,06/22.0/2026,2000,g  8.5,8.0
# From MPC191602
104P/Kowal,e,5.6995,207.1482,227.3487,3.208384,0.1715041,0.66575399,278.0197,06/22.0/2026,2000,g 16.0,4.0
# From MPC191602
105P/SingerBrewster,e,9.1694,192.3841,46.2955,3.472186,0.1523350,0.40925211,78.4969,06/22.0/2026,2000,g 11.5,6.0
# From MPC191602
106P/Schuster,e,19.5228,48.8630,353.7984,3.769208,0.1346880,0.59310848,238.1659,06/22.0/2026,2000,g 14.0,4.8
# From MPC191602
108P/Ciffreo,e,11.4283,50.2706,354.5627,3.744796,0.1360072,0.55524815,237.4620,06/22.0/2026,2000,g  8.0,12.0
# From MPC191602
110P/Hartley,e,11.7112,287.4806,167.6127,3.603080,0.1441097,0.31921109,245.7740,06/22.0/2026,2000,g  1.0,12.0
# From MPC191602
111P/Helin-Roman-Crockett,e,4.2259,89.7315,1.6504,4.153228,0.1164462,0.10705179,212.7231,06/22.0/2026,2000,g  5.0,8.0
# From MPC191602
112P/Urata-Niijima,e,24.2041,31.7941,21.5859,3.521013,0.1491773,0.59069670,346.2965,06/22.0/2026,2000,g 14.0,6.0
# From MPC191602
113P/Spitaler,e,5.2880,306.6096,115.7713,3.697239,0.1386398,0.41924068,205.3848,06/22.0/2026,2000,g 13.5,4.0
# From MPC191603
114P/Wiseman-Skiff,e,18.3035,271.0213,172.8516,3.538220,0.1480904,0.55607635,347.4122,06/22.0/2026,2000,g 11.5,6.0
# From MPC191603
115P/Maury,e,11.7224,175.8045,121.0581,4.267537,0.1117991,0.51989011,241.0468,06/22.0/2026,2000,g 10.5,6.0
# From MPC191603
116P/Wild,e,3.6055,20.9589,173.1544,3.484563,0.1515241,0.37125633,217.5286,06/22.0/2026,2000,g  2.5,10.0
# From MPC194200
117P/Helin-Roman-Alu,e,8.6405,58.7016,225.0578,4.131345,0.1173727,0.24853047,169.7282,06/22.0/2026,2000,g  2.5,8.0
# From MPC191603
118P/Shoemaker-Levy,e,10.0939,142.0404,314.9943,3.349201,0.1608023,0.45370506,209.8342,06/22.0/2026,2000,g 12.0,4.0
# From MPC191603
119P/Parker-Hartley,e,7.3927,104.5420,322.3106,3.811042,0.1324764,0.38768473,186.7672,06/22.0/2026,2000,g  3.5,8.0
# From MPC191603
120P/Mueller,e,8.4779,358.6331,36.8456,3.971415,0.1245335,0.37362962,233.1672,06/22.0/2026,2000,g 12.0,4.0
# From MPEC 2026-K60
121P/Shoemaker-Holt,e,20.1612,94.1074,12.1519,4.592178,0.1001558,0.18655925,108.7954,06/22.0/2026,2000,g  6.5,8.0
# From MPEC 2026-L50
123P/West-Hartley,e,15.2815,45.8617,103.8806,3.888315,0.1285470,0.44482734,348.1845,06/22.0/2026,2000,g  4.0,10.0
# From MPEC 2026-KB8
124P/Mrkos,e,31.4060,359.9469,185.1225,3.377097,0.1588140,0.48625610,359.7455,06/22.0/2026,2000,g 13.5,2.8
# From MPC191604
125P/Spacewatch,e,9.9863,153.1543,87.0656,3.126794,0.1782605,0.51209680,149.1811,06/22.0/2026,2000,g 13.0,6.0
# From MPC191604
126P/IRAS,e,45.8770,357.8516,356.5294,5.623002,0.0739183,0.69572333,80.0922,06/22.0/2026,2000,g  6.0,8.0
# From MPEC 2026-L50
127P/Holt-Olmstead,e,14.2900,13.6123,6.3277,3.455648,0.1534299,0.35828539,216.7740,06/22.0/2026,2000,g 11.0,6.0
# From MPC194200
128P/Shoemaker-Holt,e,4.3717,214.3066,210.5694,4.480763,0.1039145,0.32225990,357.3952,06/22.0/2026,2000,g  8.5,4.0
# From MPC191604
129P/Shoemaker-Levy,e,3.4411,184.8265,308.1603,4.295355,0.1107147,0.08595838,143.3051,06/22.0/2026,2000,g 11.0,4.0
# From MPC191604
130P/McNaught-Hughes,e,5.9553,69.5246,247.9673,3.415781,0.1561238,0.45811839,124.3901,06/22.0/2026,2000,g 10.0,6.0
# From MPC191604
131P/Mueller,e,7.3622,214.1317,179.2868,3.673967,0.1399591,0.34462044,17.6681,06/22.0/2026,2000,g 11.0,4.0
# From MPC191604
132P/Helin-Roman-Alu,e,5.3752,173.9554,216.5278,3.893787,0.1282761,0.56349099,215.8695,06/22.0/2026,2000,g 11.0,6.0
# From MPC191604
134P/Kowal-Vavrova,e,4.3316,202.0195,18.5555,6.278652,0.0626476,0.58584114,278.8690,06/22.0/2026,2000,g 11.5,4.0
# From MPC191605
135P/Shoemaker-Levy,e,6.0614,213.0140,22.2868,3.802484,0.1329239,0.29316713,204.6522,06/22.0/2026,2000,g  7.0,8.0
# From MPC194200
136P/Mueller,e,9.4306,137.3879,225.6678,4.193773,0.1147616,0.29370247,61.1845,06/22.0/2026,2000,g 11.0,4.0
# From MPEC 2026-M30
137P/Shoemaker-Levy,e,4.8575,232.9304,141.1806,4.525280,0.1023849,0.57253607,281.2946,06/22.0/2026,2000,g 11.0,4.0
# From MPC194200
138P/Shoemaker-Levy,e,10.0985,309.2186,95.7637,3.616401,0.1433142,0.53150044,12.8498,06/22.0/2026,2000,g 15.0,6.0
# From MPEC 2026-L50
139P/Vaisala-Oterma,e,2.3383,242.1184,166.1158,4.511352,0.1028594,0.24801096,319.2335,06/22.0/2026,2000,g  9.5,4.0
# From MPC191605
140P/Bowell-Skiff,e,3.6698,343.3393,172.1567,6.415716,0.0606508,0.69479316,242.8510,06/22.0/2026,2000,g 11.5,6.0
# From MPC191605
141P/Machholz,e,13.9601,241.7712,153.6516,3.056511,0.1844443,0.73582238,11.0679,06/22.0/2026,2000,g 12.0,12.0
# From MPEC 2015-KD9
141P-A/Machholz,e,13.9431,153.4934,241.9425,3.056914,0.1844078,0.73585316,10.9985,06/22.0/2026,2000,g 12.0,12.0
# From MPC 37026
141P-D/Machholz,e,13.8346,153.2186,242.1747,3.065721,0.1836137,0.73679343,6.3151,06/22.0/2026,2000,g 12.0,12.0
# From MPC186636
141P-H/Machholz,e,14.0162,241.8460,153.6276,3.046036,0.1853965,0.73461540,15.0573,06/22.0/2026,2000,g 18.5,4.0
# From MPEC 2022-SU8
141P-I/Machholz,e,13.9430,153.4488,241.9502,3.047350,0.1852766,0.73508334,12.8532,06/22.0/2026,2000,g 17.5,4.0
# From MPC191605
142P/Ge-Wang,e,12.2430,175.9630,174.0080,5.003328,0.0880675,0.49568918,164.6255,06/22.0/2026,2000,g  8.5,6.0
# From MPEC 2026-J34
143P/Kowal-Mrkos,e,5.3938,241.9979,304.9226,4.747307,0.0952869,0.37715283,341.9568,06/22.0/2026,2000,g 13.5,2.0
# From MPC191605
144P/Kushida,e,3.9301,242.9206,216.4005,3.835432,0.1312147,0.63482782,115.2255,06/22.0/2026,2000,g  8.5,8.0
# From MPEC 2026-L50
